IRS-P5 (CARTOSAT-1)     
1 28649U 05017A   26194.65266510  .00000605  00000+0  66278-4 0  9998
2 28649  97.5307 216.5165 0001482  55.3068 304.8290 14.91114830147763
KAZEOSAT 1              
1 39731U 14024A   26194.80442498  .00000032  00000+0  22842-4 0  9991
2 39731  98.3205 266.5879 0001250  81.1285 279.0046 14.42036735642395
KAZEOSAT 2              
1 40010U 14033A   26194.83710486  .00000435  00000+0  56175-4 0  9994
2 40010  97.5395  33.0400 0007346 224.7585 135.3039 14.85499019652915
JASON-3                 
1 41240U 16002A   26194.87654647 -.00000022  00000+0  15784-3 0  9991
2 41240  66.0416  69.7248 0008196 271.0448  88.9632 12.87628572490683
KAZSTSAT                
1 43783U 18099AB  26194.31546564  .00000676  00000+0  58934-4 0  9999
2 43783  97.4319 225.0657 0007458 348.5127  11.5926 14.99953170415227
INSAT-3DS               
1 58990U 24033A   26194.86242222 -.00000161  00000+0  00000+0 0  9990
2 58990   0.0951 264.9709 0001036 225.3823 193.9225  1.00271008 47337
IONOSFERA-M 1           
1 61735U 24199A   26194.84727381  .00000028  00000+0  32037-4 0  9997
2 61735  98.7137  67.7337 0002179  74.6699 285.4719 14.22758946131494
IONOSFERA-M 2           
1 61736U 24199B   26194.81117994  .00000029  00000+0  32414-4 0  9998
2 61736  98.7136  67.6084 0000445 120.1877 239.9345 14.22762313134610
IONOSFERA-M 3           
1 64876U 25155A   26194.85272426  .00000011  00000+0  24548-4 0  9995
2 64876  98.6039 156.0886 0002245 114.4171 245.7241 14.21490714 50197
IONOSFERA-M 4           
1 64877U 25155B   26194.88752000  .00000005  00000+0  21913-4 0  9996
2 64877  98.6038 156.0397 0001800 100.9887 259.1493 14.21493133 50190
